IRIDIUM 149             
1 43250U 18030B   24211.87749245  .00000114  00000+0  33595-4 0  9996
2 43250  86.3961 217.5993 0002168  86.3903 273.7541 14.34218311331645
IRIDIUM 157             
1 43251U 18030C   24211.54767883  .00000049  00000+0  10578-4 0  9992
2 43251  86.3962 217.7749 0002154  97.0945 263.0496 14.34217660331577
IRIDIUM 140             
1 43252U 18030D   24211.77601269  .00000063  00000+0  15429-4 0  9999
2 43252  86.3964 217.6941 0002536  82.8720 277.2764 14.34217803331664
IRIDIUM 145             
1 43253U 18030E   24211.90286330  .00000065  00000+0  16086-4 0  9995
2 43253  86.3963 217.6145 0002136  79.2132 280.9304 14.34217986331611
IRIDIUM 146             
1 43254U 18030F   24211.95360648  .00000254  00000+0  83524-4 0  9997
2 43254  86.3963 217.6081 0002242  85.2385 274.9067 14.34218915331630
IRIDIUM 148             
1 43255U 18030G   24211.92189141  .00000078  00000+0  20745-4 0  9992
2 43255  86.3965 217.6538 0002147  91.3919 268.7522 14.34217882331667
IRIDIUM 142             
1 43256U 18030H   24211.54133544  .00000118  00000+0  34959-4 0  9994
2 43256  86.3961 217.7271 0002167  82.1754 277.9687 14.34218799331578
